{
  "norad_id": 68677,
  "name": "STARLINK-36168",
  "history": [
    {
      "epoch": "2026-04-22T14:25:50.435616Z",
      "apogee_km": 342.3340196112349,
      "perigee_km": 341.0370938577853,
      "latitude_deg": 6.12956747915389e-05,
      "longitude_deg": -83.44917748618872,
      "height_km": 344.99963313419585,
      "semi_major_axis_km": 6719.82255673451,
      "eccentricity": 9.65e-05,
      "inclination_deg": 97.2827,
      "raan_deg": 343.6715,
      "arg_perigee_deg": 103.0129,
      "mean_anomaly_deg": 257.1245,
      "mean_motion_rev_day": 15.76035712
    }
  ]
}